NORAD_CAT_ID,OBJECT_NAME,OBJECT_TYPE,EPOCH,MEAN_MOTION,ECCENTRICITY,INCLINATION,RA_OF_ASC_NODE,ARG_OF_PERICENTER,MEAN_ANOMALY,BSTAR,MEAN_MOTION_DOT,MEAN_MOTION_DDOT,TLE_LINE0,TLE_LINE1,TLE_LINE2,SEMIMAJOR_AXIS,PERIOD,APOGEE,PERIGEE,DECAYED
51140.0,STARLINK-3175,PAYLOAD,2022-05-02 06:00:00,15.08841097,0.0002071,53.2144,137.3628,39.1541,314.7151,-0.0014711,-0.00023626,0.0,0 STARLINK-3175,1 51140U 22005AN  22122.25001157 -.00023626  00000-0 -14711-2 0  9997,2 51140  53.2144 137.3628 0002071  39.1541 314.7151 15.08841097 17378,6917.877,95.437,541.175,538.309,0.0
51140.0,STARLINK-3175,PAYLOAD,2022-05-02 14:00:01,15.08833952,0.0002154,53.2142,135.8666,36.215,329.2343,-3.0341e-05,-7.71e-06,0.0,0 STARLINK-3175,1 51140U 22005AN  22122.58334491 -.00000771  00000-0 -30341-4 0  9998,2 51140  53.2142 135.8666 0002154  36.2150 329.2343 15.08833952  3636,6917.899,95.438,541.254,538.274,0.0
51140.0,STARLINK-3175,PAYLOAD,2022-05-02 22:00:01,15.08812057,0.000196,53.2145,134.3685,41.797,335.315,0.0031731,0.00050536,0.0,0 STARLINK-3175,1 51140U 22005AN  22122.91668981  .00050536  00000-0  31731-2 0  9993,2 51140  53.2145 134.3685 0001960  41.7970 335.3150 15.08812057 17473,6917.965999999999,95.439,541.187,538.475,0.0
51140.0,STARLINK-3175,PAYLOAD,2022-05-03 14:00:01,15.08849886,0.0002189,53.2146,131.377,37.8563,2.3692,-0.00046254,-7.644e-05,0.0,0 STARLINK-3175,1 51140U 22005AN  22123.58334491 -.00007644  00000-0 -46254-3 0  9994,2 51140  53.2146 131.3770 0002189  37.8563   2.3692 15.08849886 17577,6917.85,95.437,541.229,538.201,0.0
51140.0,STARLINK-3175,PAYLOAD,2022-05-03 22:00:00,15.08824727,0.0001984,53.215,129.8791,43.3409,8.4961,0.003037,0.00048358,0.0,0 STARLINK-3175,1 51140U 22005AN  22123.91667824  .00048358  00000-0  30370-2 0  9996,2 51140  53.2150 129.8791 0001984  43.3409   8.4961 15.08824727  3589,6917.927,95.439,541.165,538.42,0.0
51140.0,STARLINK-3175,PAYLOAD,2022-05-04 12:00:00,15.0884974,0.0002185,53.2148,127.2624,38.1387,304.0048,0.00019728,2.854e-05,0.0,0 STARLINK-3175,1 51140U 22005AN  22124.50001157  .00002854  00000-0  19728-3 0  9999,2 51140  53.2148 127.2624 0002185  38.1387 304.0048 15.08849740 17717,6917.851,95.437,541.227,538.2040000000002,0.0
51140.0,STARLINK-3175,PAYLOAD,2022-05-04 14:00:01,15.08874953,0.0002168,53.2148,126.8878,38.5992,36.4401,-0.0036355,-0.00057741,0.0,0 STARLINK-3175,1 51140U 22005AN  22124.58334491 -.00057741  00000-0 -36355-2 0  9998,2 51140  53.2148 126.8878 0002168  38.5992  36.4401 15.08874953  3617,6917.774,95.435,541.138,538.139,0.0
51140.0,STARLINK-3175,PAYLOAD,2022-05-04 22:00:01,15.08810794,0.0001924,53.215,125.3898,42.9078,43.8184,0.0027701,0.00044039,0.0,0 STARLINK-3175,1 51140U 22005AN  22124.91668981  .00044039  00000-0  27701-2 0  9998,2 51140  53.2150 125.3898 0001924  42.9078  43.8184 15.08810794  3623,6917.97,95.439,541.1659999999998,538.504,0.0
51140.0,STARLINK-3175,PAYLOAD,2022-05-05 06:00:00,15.08842529,0.0002112,53.215,123.8953,41.0057,57.2371,-0.0012689,-0.00020428,0.0,0 STARLINK-3175,1 51140U 22005AN  22125.25001157 -.00020428  00000-0 -12689-2 0  9999,2 51140  53.2150 123.8953 0002112  41.0057  57.2371 15.08842529 17831,6917.873000000001,95.437,541.1990000000002,538.2769999999998,0.0
51140.0,STARLINK-3175,PAYLOAD,2022-05-05 14:00:01,15.08847607,0.0002137,53.2151,122.3971,39.8727,69.9553,-0.00095505,-0.00015459,0.0,0 STARLINK-3175,1 51140U 22005AN  22125.58334491 -.00015459  00000-0 -95505-3 0  9992,2 51140  53.2151 122.3971 0002137  39.8727  69.9553 15.08847607  3583,6917.857,95.437,541.2,538.244,0.0
51140.0,STARLINK-3175,PAYLOAD,2022-05-05 22:00:00,15.08824389,0.0001971,53.2149,120.901,45.5165,75.9109,0.002337,0.00037086,0.0,0 STARLINK-3175,1 51140U 22005AN  22125.91667824  .00037086  00000-0  23370-2 0  9996,2 51140  53.2149 120.9010 0001971  45.5165  75.9109 15.08824389 17933,6917.928000000001,95.439,541.1569999999998,538.43,0.0
51140.0,STARLINK-3175,PAYLOAD,2022-05-06 14:00:01,15.08859034,0.0002164,53.2146,117.9096,41.6459,102.9688,-0.0015285,-0.00024545,0.0,0 STARLINK-3175,1 51140U 22005AN  22126.58334491 -.00024545  00000-0 -15285-2 0  9995,2 51140  53.2146 117.9096 0002164  41.6459 102.9688 15.08859034 18038,6917.821999999999,95.436,541.184,538.19,0.0
51140.0,STARLINK-3175,PAYLOAD,2022-05-07 14:00:01,15.08844823,0.0002157,53.2146,113.4204,41.0803,138.3151,-0.0017346,-0.00027793,0.0,0 STARLINK-3175,1 51140U 22005AN  22127.58334491 -.00027793  00000-0 -17346-2 0  9994,2 51140  53.2146 113.4204 0002157  41.0803 138.3151 15.08844823 18183,6917.866,95.437,541.2230000000002,538.238,0.0
51140.0,STARLINK-3175,PAYLOAD,2022-05-07 22:00:00,15.08824697,0.0002066,53.2149,111.9228,46.6798,144.3064,0.0018403,0.0002911,0.0,0 STARLINK-3175,1 51140U 22005AN  22127.91667824  .00029110  00000-0  18403-2 0  9998,2 51140  53.2149 111.9228 0002066  46.6798 144.3064 15.08824697  3617,6917.927,95.439,541.221,538.363,0.0
51140.0,STARLINK-3175,PAYLOAD,2022-05-08 14:00:01,15.08846963,0.0002206,53.215,108.9311,43.9546,170.1779,-0.0018833,-0.00030143,0.0,0 STARLINK-3175,1 51140U 22005AN  22128.58334491 -.00030143  00000-0 -18833-2 0  9990,2 51140  53.2150 108.9311 0002206  43.9546 170.1779 15.08846963 18330,6917.859,95.437,541.25,538.198,0.0
51140.0,STARLINK-3175,PAYLOAD,2022-05-08 22:00:00,15.08828905,0.0002139,53.2153,107.4337,49.3689,176.3545,0.001772,0.00028018,0.0,0 STARLINK-3175,1 51140U 22005AN  22128.91667824  .00028018  00000-0  17720-2 0  9996,2 51140  53.2153 107.4337 0002139  49.3689 176.3545 15.08828905  3573,6917.9140000000025,95.438,541.259,538.3,0.0
51140.0,STARLINK-3175,PAYLOAD,2022-05-09 06:00:00,15.08837561,0.0002357,53.2153,105.939,45.5633,191.7574,0.0004989,7.659999999999999e-05,0.0,0 STARLINK-3175,1 51140U 22005AN  22129.25001157  .00007660  00000-0  49890-3 0  9999,2 51140  53.2153 105.9390 0002357  45.5633 191.7574 15.08837561 18436,6917.888000000001,95.438,541.383,538.122,0.0
51140.0,STARLINK-3175,PAYLOAD,2022-05-09 14:00:01,15.08866224,0.0002274,53.2154,104.4417,45.6519,203.3234,-0.0018794,-0.00030097,0.0,0 STARLINK-3175,1 51140U 22005AN  22129.58335648 -.00030097  00000-0 -18794-2 0  9990,2 51140  53.2154 104.4417 0002274  45.6519 203.3234 15.08866224  3573,6917.8,95.436,541.238,538.092,0.0
51140.0,STARLINK-3175,PAYLOAD,2022-05-09 22:00:00,15.08862428,0.0002165,53.2157,102.9444,50.1679,210.3553,-0.0015302999999999,-0.00024576,0.0,0 STARLINK-3175,1 51140U 22005AN  22129.91667824 -.00024576  00000-0 -15303-2 0  9999,2 51140  53.2157 102.9444 0002165  50.1679 210.3553 15.08862428  3569,6917.812,95.436,541.175,538.179,0.0
51140.0,STARLINK-3175,PAYLOAD,2022-05-10 14:00:01,15.08854042,0.0002229,53.2156,99.9523,45.494,238.2236,-0.0019869,-0.00031784,0.0,0 STARLINK-3175,1 51140U 22005AN  22130.58334491 -.00031784  00000-0 -19869-2 0  9995,2 51140  53.2156  99.9523 0002229  45.4940 238.2236 15.08854042 18634,6917.837,95.437,541.244,538.16,0.0
51140.0,STARLINK-3175,PAYLOAD,2022-05-10 18:00:00,15.08824477,0.0002116,53.2157,99.2033,47.6859,61.8391,0.0016169,0.00025528,0.0,0 STARLINK-3175,1 51140U 22005AN  22130.75001157  .00025528  00000-0  16169-2 0  9991,2 51140  53.2157  99.2033 0002116  47.6859  61.8391 15.08824477  3581,6917.928000000001,95.439,541.257,538.3290000000002,0.0
51140.0,STARLINK-3175,PAYLOAD,2022-05-11 22:00:00,15.0883543,0.0002076,53.2159,93.9658,51.0215,279.0408,0.0010084,0.00015795,0.0,0 STARLINK-3175,1 51140U 22005AN  22131.91667824  .00015795  00000-0  10084-2 0  9994,2 51140  53.2159  93.9658 0002076  51.0215 279.0408 15.08835430 18834,6917.894,95.438,541.196,538.323,0.0
51140.0,STARLINK-3175,PAYLOAD,2022-05-12 14:00:01,15.08856289,0.0002139,53.2156,90.9736,48.5015,304.7478,-0.0014829,-0.00023822,0.0,0 STARLINK-3175,1 51140U 22005AN  22132.58334491 -.00023822  00000-0 -14829-2 0  9992,2 51140  53.2156  90.9736 0002139  48.5015 304.7478 15.08856289  1306,6917.831,95.437,541.175,538.216,0.0
51140.0,STARLINK-3175,PAYLOAD,2022-05-12 22:00:00,15.08867444,0.0002022,53.2157,89.4765,52.3722,312.4964,-0.0018388,-0.00029456,0.0,0 STARLINK-3175,1 51140U 22005AN  22132.91667824 -.00029456  00000-0 -18388-2 0  9991,2 51140  53.2157  89.4765 0002022  52.3722 312.4964 15.08867444  1302,6917.797,95.436,541.06,538.263,0.0
51140.0,STARLINK-3175,PAYLOAD,2022-05-13 06:00:00,15.0882676,0.0002167,53.2156,87.9818,46.8071,329.677,0.001764,0.00027888,0.0,0 STARLINK-3175,1 51140U 22005AN  22133.25001157  .00027888  00000-0  17640-2 0  9995,2 51140  53.2156  87.9818 0002167  46.8071 329.6770 15.08826760 19038,6917.920999999999,95.438,541.285,538.2869999999998,0.0
51140.0,STARLINK-3175,PAYLOAD,2022-05-13 14:00:01,15.08855561,0.0002008,53.2153,86.4839,48.4335,339.6436,-0.0033797,-0.000537,0.0,0 STARLINK-3175,1 51140U 22005AN  22133.58334491 -.00053700  00000-0 -33797-2 0  9996,2 51140  53.2153  86.4839 0002008  48.4335 339.6436 15.08855561  1309,6917.833000000001,95.437,541.087,538.309,0.0
51140.0,STARLINK-3175,PAYLOAD,2022-05-13 22:00:00,15.08836249,0.000194,53.2154,84.9874,51.7378,347.9255,0.00022251,3.255e-05,0.0,0 STARLINK-3175,1 51140U 22005AN  22133.91667824  .00003255  00000-0  22251-3 0  9994,2 51140  53.2154  84.9874 0001940  51.7378 347.9255 15.08836249 19133,6917.892,95.438,541.099,538.415,0.0
51140.0,STARLINK-3175,PAYLOAD,2022-05-14 14:00:01,15.08864819,0.0001957,53.2154,81.9946,49.0867,13.7676,-0.0017527,-0.00028094,0.0,0 STARLINK-3175,1 51140U 22005AN  22134.58334491 -.00028094  00000-0 -17527-2 0  9998,2 51140  53.2154  81.9946 0001957  49.0867  13.7676 15.08864819  1300,6917.805,95.436,541.023,538.316,0.0
51140.0,STARLINK-3175,PAYLOAD,2022-05-14 22:00:00,15.08851436,0.0001911,53.2157,80.4981,51.5496,22.9183,-0.00013853,-2.493e-05,0.0,0 STARLINK-3175,1 51140U 22005AN  22134.91667824 -.00002493  00000-0 -13853-3 0  9998,2 51140  53.2157  80.4981 0001911  51.5496  22.9183 15.08851436  1308,6917.845,95.437,541.0319999999998,538.388,0.0
